{"type": "FeatureCollection", "features": [ {"type": "Feature", "properties": {"norad_id": 31057, "name": "FENGYUN 1C DEB", "group": "fengyun-1c-debris", "lat": 26.807461249557583, "lon": -149.59058020281543, "alt_km": 646.6697531698392, "timestamp": "2025-12-12T07:43:20.794317+00:00", "meta": {"OBJECT_NAME": "FENGYUN 1C DEB", "OBJECT_ID": "1999-025BFB", "EPOCH": "2025-12-07T08:31:09.738912", "MEAN_MOTION": 14.79274467, "ECCENTRICITY": 0.0137797, "INCLINATION": 99.2572, "RA_OF_ASC_NODE": 19.9678, "ARG_OF_PERICENTER": 268.7892, "MEAN_ANOMALY": 89.7526, "EPHEMERIS_TYPE": 0, "CLASSIFICATION_TYPE": "U", "NORAD_CAT_ID": 31057, "ELEMENT_SET_NO": 999, "REV_AT_EPOCH": 61873, "BSTAR": 0.0014079461, "MEAN_MOTION_DOT": 0.00012236, "MEAN_MOTION_DDOT": 0}, "tle": {"line1": "1 31057U 99025BFB 25341.35497383  .00012236  00000+0  14079-2 0  9994", "line2": "2 31057  99.2572  19.9678 0137797 268.7892  89.7526 14.79274467618731"}}, "geometry": {"type": "Point", "coordinates": [-149.59058020281543, 26.807461249557583]}}, {"type": "Feature", "properties": {"norad_id": 31058, "name": "FENGYUN 1C DEB", "group": "fengyun-1c-debris", "lat": -36.20239779041473, "lon": -57.38865810006379, "alt_km": 701.0785623422098, "timestamp": "2025-12-12T07:43:20.794328+00:00", "meta": {"OBJECT_NAME": "FENGYUN 1C DEB", "OBJECT_ID": "1999-025BFC", "EPOCH": "2025-12-10T02:12:39.489408", "MEAN_MOTION": 14.76251387, "ECCENTRICITY": 0.0095157, "INCLINATION": 99.5664, "RA_OF_ASC_NODE": 292.8837, "ARG_OF_PERICENTER": 114.1252, "MEAN_ANOMALY": 246.994, "EPHEMERIS_TYPE": 0, "CLASSIFICATION_TYPE": "U", "NORAD_CAT_ID": 31058, "ELEMENT_SET_NO": 999, "REV_AT_EPOCH": 99510, "BSTAR": 0.0016465587, "MEAN_MOTION_DOT": 0.00012229, "MEAN_MOTION_DDOT": 0}, "tle": {"line1": "1 31058U 99025BFC 25344.09212372  .00012229  00000+0  16466-2 0  9996", "line2": "2 31058  99.5664 292.8837 0095157 114.1252 246.9940 14.76251387995102"}}, "geometry": {"type": "Point", "coordinates": [-57.38865810006379, -36.20239779041473]}}, {"type": "Feature", "properties": {"norad_id": 31062, "name": "FENGYUN 1C DEB", "group": "fengyun-1c-debris", "lat": -74.03948474933757, "lon": -157.63084032216068, "alt_km": 883.2213524795789, "timestamp": "2025-12-12T07:43:20.794338+00:00", "meta": {"OBJECT_NAME": "FENGYUN 1C DEB", "OBJECT_ID": "1999-025BFG", "EPOCH": "2025-12-11T11:16:35.128128", "MEAN_MOTION": 13.75690748, "ECCENTRICITY": 0.01716377, "INCLINATION": 98.9967, "RA_OF_ASC_NODE": 167.928, "ARG_OF_PERICENTER": 321.247, "MEAN_ANOMALY": 66.3029, "EPHEMERIS_TYPE": 0, "CLASSIFICATION_TYPE": "U", "NORAD_CAT_ID": 31062, "ELEMENT_SET_NO": 999, "REV_AT_EPOCH": 94216, "BSTAR": 0.0004157333, "MEAN_MOTION_DOT": 4.05e-06, "MEAN_MOTION_DDOT": 0}, "tle": {"line1": "1 31062U 99025BFG 25345.46985102  .00000405  00000+0  41573-3 0  9992", "line2": "2 31062  98.9967 167.9280 0171637 321.2470  66.3029 13.75690748942167"}}, "geometry": {"type": "Point", "coordinates": [-157.63084032216068, -74.03948474933757]}}, {"type": "Feature", "properties": {"norad_id": 31064, "name": "FENGYUN 1C DEB", "group": "fengyun-1c-debris", "lat": 7.171501621213194, "lon": -32.06962679467213, "alt_km": 646.6761378459951, "timestamp": "2025-12-12T07:43:20.794348+00:00", "meta": {"OBJECT_NAME": "FENGYUN 1C DEB", "OBJECT_ID": "1999-025BFJ", "EPOCH": "2025-12-10T22:03:02.795904", "MEAN_MOTION": 14.22128283, "ECCENTRICITY": 0.0241659, "INCLINATION": 98.5737, "RA_OF_ASC_NODE": 327.6525, "ARG_OF_PERICENTER": 6.9085, "MEAN_ANOMALY": 21.4961, "EPHEMERIS_TYPE": 0, "CLASSIFICATION_TYPE": "U", "NORAD_CAT_ID": 31064, "ELEMENT_SET_NO": 999, "REV_AT_EPOCH": 97229, "BSTAR": 0.00058583, "MEAN_MOTION_DOT": 1.7e-05, "MEAN_MOTION_DDOT": 0}, "tle": {"line1": "1 31064U 99025BFJ 25344.91878236  .00001700  00000+0  58583-3 0  9990", "line2": "2 31064  98.5737 327.6525 0241659   6.9085  21.4961 14.22128283972295"}}, "geometry": {"type": "Point", "coordinates": [-32.06962679467213, 7.171501621213194]}}, {"type": "Feature", "properties": {"norad_id": 31065, "name": "FENGYUN 1C DEB", "group": "fengyun-1c-debris", "lat": -70.49465984230815, "lon": 30.310499770829097, "alt_km": 811.6159177211994, "timestamp": "2025-12-12T07:43:20.794358+00:00", "meta": {"OBJECT_NAME": "FENGYUN 1C DEB", "OBJECT_ID": "1999-025BFK", "EPOCH": "2025-12-10T19:04:06.540960", "MEAN_MOTION": 14.28161243, "ECCENTRICITY": 0.00352875, "INCLINATION": 98.4671, "RA_OF_ASC_NODE": 3.9618, "ARG_OF_PERICENTER": 37.2284, "MEAN_ANOMALY": 323.1334, "EPHEMERIS_TYPE": 0, "CLASSIFICATION_TYPE": "U", "NORAD_CAT_ID": 31065, "ELEMENT_SET_NO": 999, "REV_AT_EPOCH": 64550, "BSTAR": 0.0013095364, "MEAN_MOTION_DOT": 3.239e-05, "MEAN_MOTION_DDOT": 0}, "tle": {"line1": "1 31065U 99025BFK 25344.79452015  .00003239  00000+0  13095-2 0  9997", "line2": "2 31065  98.4671   3.9618 0035287  37.2284 323.1334 14.28161243645501"}}, "geometry": {"type": "Point", "coordinates": [30.310499770829097, -70.49465984230815]}}, {"type": "Feature", "properties": {"norad_id": 31068, "name": "FENGYUN 1C DEB", "group": "fengyun-1c-debris", "lat": -5.367649014732584, "lon": -30.67277430934935, "alt_km": 932.5673028275232, "timestamp": "2025-12-12T07:43:20.794368+00:00", "meta": {"OBJECT_NAME": "FENGYUN 1C DEB", "OBJECT_ID": "1999-025BFN", "EPOCH": "2025-12-08T16:50:26.088576", "MEAN_MOTION": 14.0918717, "ECCENTRICITY": 0.01655633, "INCLINATION": 98.6287, "RA_OF_ASC_NODE": 325.0408, "ARG_OF_PERICENTER": 129.6248, "MEAN_ANOMALY": 231.9669, "EPHEMERIS_TYPE": 0, "CLASSIFICATION_TYPE": "U", "NORAD_CAT_ID": 31068, "ELEMENT_SET_NO": 999, "REV_AT_EPOCH": 96298, "BSTAR": 0.00020953749, "MEAN_MOTION_DOT": 3.73e-06, "MEAN_MOTION_DDOT": 0}, "tle": {"line1": "1 31068U 99025BFN 25342.70169084  .00000373  00000+0  20954-3 0  9999", "line2": "2 31068  98.6287 325.0408 0165563 129.6248 231.9669 14.09187170962988"}}, "geometry": {"type": "Point", "coordinates": [-30.67277430934935, -5.367649014732584]}}, {"type": "Feature", "properties": {"norad_id": 31069, "name": "FENGYUN 1C DEB", "group": "fengyun-1c-debris", "lat": -78.68472631949741, "lon": -160.21005350978552, "alt_km": 780.1760941628318, "timestamp": "2025-12-12T07:43:20.794379+00:00", "meta": {"OBJECT_NAME": "FENGYUN 1C DEB", "OBJECT_ID": "1999-025BFP", "EPOCH": "2025-12-07T04:30:06.594048", "MEAN_MOTION": 14.57048672, "ECCENTRICITY": 0.01047006, "INCLINATION": 99.0995, "RA_OF_ASC_NODE": 140.963, "ARG_OF_PERICENTER": 94.1529, "MEAN_ANOMALY": 267.1641, "EPHEMERIS_TYPE": 0, "CLASSIFICATION_TYPE": "U", "NORAD_CAT_ID": 31069, "ELEMENT_SET_NO": 999, "REV_AT_EPOCH": 98605, "BSTAR": 0.0012606764, "MEAN_MOTION_DOT": 6.061e-05, "MEAN_MOTION_DDOT": 0}, "tle": {"line1": "1 31069U 99025BFP 25341.18757632  .00006061  00000+0  12607-2 0  9998", "line2": "2 31069  99.0995 140.9630 0104700  94.1529 267.1641 14.57048672986056"}}, "geometry": {"type": "Point", "coordinates": [-160.21005350978552, -78.68472631949741]}}, {"type": "Feature", "properties": {"norad_id": 31071, "name": "FENGYUN 1C DEB", "group": "fengyun-1c-debris", "lat": 20.964178044768772, "lon": 60.53820327945552, "alt_km": 722.4446313617746, "timestamp": "2025-12-12T07:43:20.794389+00:00", "meta": {"OBJECT_NAME": "FENGYUN 1C DEB", "OBJECT_ID": "1999-025BFR", "EPOCH": "2025-12-11T11:47:14.652384", "MEAN_MOTION": 14.52614278, "ECCENTRICITY": 0.00555669, "INCLINATION": 99.0415, "RA_OF_ASC_NODE": 63.1415, "ARG_OF_PERICENTER": 285.5225, "MEAN_ANOMALY": 73.9837, "EPHEMERIS_TYPE": 0, "CLASSIFICATION_TYPE": "U", "NORAD_CAT_ID": 31071, "ELEMENT_SET_NO": 999, "REV_AT_EPOCH": 65476, "BSTAR": 0.0020144701, "MEAN_MOTION_DOT": 8.368e-05, "MEAN_MOTION_DDOT": 0}, "tle": {"line1": "1 31071U 99025BFR 25345.49114181  .00008368  00000+0  20145-2 0  9993", "line2": "2 31071  99.0415  63.1415 0055566 285.5225  73.9837 14.52614278654763"}}, "geometry": {"type": "Point", "coordinates": [60.53820327945552, 20.964178044768772]}}, {"type": "Feature", "properties": {"norad_id": 31072, "name": "FENGYUN 1C DEB", "group": "fengyun-1c-debris", "lat": -73.77480687585948, "lon": 26.088583776620563, "alt_km": 964.9131678817503, "timestamp": "2025-12-12T07:43:20.794400+00:00", "meta": {"OBJECT_NAME": "FENGYUN 1C DEB", "OBJECT_ID": "1999-025BFS", "EPOCH": "2025-12-09T17:45:43.073568", "MEAN_MOTION": 14.25468568, "ECCENTRICITY": 0.02104856, "INCLINATION": 99.333, "RA_OF_ASC_NODE": 348.93, "ARG_OF_PERICENTER": 106.2729, "MEAN_ANOMALY": 256.1714, "EPHEMERIS_TYPE": 0, "CLASSIFICATION_TYPE": "U", "NORAD_CAT_ID": 31072, "ELEMENT_SET_NO": 999, "REV_AT_EPOCH": 96600, "BSTAR": 0.00088556176, "MEAN_MOTION_DOT": 2.587e-05, "MEAN_MOTION_DDOT": 0}, "tle": {"line1": "1 31072U 99025BFS 25343.74008187  .00002587  00000+0  88556-3 0  9996", "line2": "2 31072  99.3330 348.9300 0210485 106.2729 256.1714 14.25468568966002"}}, "geometry": {"type": "Point", "coordinates": [26.088583776620563, -73.77480687585948]}}, {"type": "Feature", "properties": {"norad_id": 31073, "name": "FENGYUN 1C DEB", "group": "fengyun-1c-debris", "lat": -77.17975833645079, "lon": -118.46877430942888, "alt_km": 784.0232470909468, "timestamp": "2025-12-12T07:43:20.794410+00:00", "meta": {"OBJECT_NAME": "FENGYUN 1C DEB", "OBJECT_ID": "1999-025BFT", "EPOCH": "2025-12-09T09:18:45.997632", "MEAN_MOTION": 14.24769317, "ECCENTRICITY": 0.00455685, "INCLINATION": 99.2196, "RA_OF_ASC_NODE": 192.9137, "ARG_OF_PERICENTER": 295.1818, "MEAN_ANOMALY": 64.4638, "EPHEMERIS_TYPE": 0, "CLASSIFICATION_TYPE": "U", "NORAD_CAT_ID": 31073, "ELEMENT_SET_NO": 999, "REV_AT_EPOCH": 97035, "BSTAR": 0.001957229, "MEAN_MOTION_DOT": 4.564e-05, "MEAN_MOTION_DDOT": 0}, "tle": {"line1": "1 31073U 99025BFT 25343.38803238  .00004564  00000+0  19572-2 0  9995", "line2": "2 31073  99.2196 192.9137 0045568 295.1818  64.4638 14.24769317970355"}}, "geometry": {"type": "Point", "coordinates": [-118.46877430942888, -77.17975833645079]}}]}